{
  "type": "FeatureCollection",
  "features": [
    {
      "type": "Feature",
      "properties": {
        "norad_id": 34340,
        "name": "COSMOS 2251 DEB",
        "group": "cosmos-2251-debris",
        "lat": 30.646593062547296,
        "lon": -43.108660758367485,
        "alt_km": 771.0757174325609,
        "timestamp": "2025-12-13T05:42:57.966217+00:00",
        "meta_object_name": "COSMOS 2251 DEB",
        "meta_object_id": "1993-036PN",
        "meta_epoch": "2025-12-12T07:30:08.360928",
        "meta_mean_motion": 13.79567959,
        "meta_eccentricity": 0.02825705,
        "meta_inclination": 74.0793,
        "meta_ra_of_asc_node": 308.7004,
        "meta_arg_of_pericenter": 56.5863,
        "meta_mean_anomaly": 61.6831,
        "meta_ephemeris_type": 0,
        "meta_classification_type": "U",
        "meta_norad_cat_id": 34340,
        "meta_element_set_no": 999,
        "meta_rev_at_epoch": 84262,
        "meta_bstar": 0.0020466181,
        "meta_mean_motion_dot": 2.826e-05,
        "meta_mean_motion_ddot": 0,
        "tle_line1": "1 34340U 93036PN  25346.31259677  .00002826  00000+0  20466-2 0  9992",
        "tle_line2": "2 34340  74.0793 308.7004 0282570  56.5863  61.6831 13.79567959842623"
      },
      "geometry": {
        "type": "Point",
        "coordinates": [
          -43.108660758367485,
          30.646593062547296
        ]
      }
    },
    {
      "type": "Feature",
      "properties": {
        "norad_id": 34343,
        "name": "COSMOS 2251 DEB",
        "group": "cosmos-2251-debris",
        "lat": -73.77884407311093,
        "lon": -11.351217477622559,
        "alt_km": 671.5174253183495,
        "timestamp": "2025-12-13T05:42:57.966227+00:00",
        "meta_object_name": "COSMOS 2251 DEB",
        "meta_object_id": "1993-036PR",
        "meta_epoch": "2025-12-12T07:33:32.552640",
        "meta_mean_motion": 14.6943285,
        "meta_eccentricity": 0.00233377,
        "meta_inclination": 74.0199,
        "meta_ra_of_asc_node": 90.3778,
        "meta_arg_of_pericenter": 5.5555,
        "meta_mean_anomaly": 60.1729,
        "meta_ephemeris_type": 0,
        "meta_classification_type": "U",
        "meta_norad_cat_id": 34343,
        "meta_element_set_no": 999,
        "meta_rev_at_epoch": 88724,
        "meta_bstar": 0.002392469,
        "meta_mean_motion_dot": 0.00014222,
        "meta_mean_motion_ddot": 0,
        "tle_line1": "1 34343U 93036PR  25346.31496010  .00014222  00000+0  23925-2 0  9995",
        "tle_line2": "2 34343  74.0199  90.3778 0023337   5.5555  60.1729 14.69432850887242"
      },
      "geometry": {
        "type": "Point",
        "coordinates": [
          -11.351217477622559,
          -73.77884407311093
        ]
      }
    },
    {
      "type": "Feature",
      "properties": {
        "norad_id": 34344,
        "name": "COSMOS 2251 DEB",
        "group": "cosmos-2251-debris",
        "lat": -73.72368074145155,
        "lon": 29.678514163642618,
        "alt_km": 739.0495972823319,
        "timestamp": "2025-12-13T05:42:57.966238+00:00",
        "meta_object_name": "COSMOS 2251 DEB",
        "meta_object_id": "1993-036PS",
        "meta_epoch": "2025-12-11T19:14:49.841664",
        "meta_mean_motion": 14.16396729,
        "meta_eccentricity": 0.01558144,
        "meta_inclination": 73.9782,
        "meta_ra_of_asc_node": 112.0214,
        "meta_arg_of_pericenter": 296.3882,
        "meta_mean_anomaly": 216.6791,
        "meta_ephemeris_type": 0,
        "meta_classification_type": "U",
        "meta_norad_cat_id": 34344,
        "meta_element_set_no": 999,
        "meta_rev_at_epoch": 86083,
        "meta_bstar": 0.0025281982,
        "meta_mean_motion_dot": 5.632e-05,
        "meta_mean_motion_ddot": 0,
        "tle_line1": "1 34344U 93036PS  25345.80196576  .00005632  00000+0  25282-2 0  9996",
        "tle_line2": "2 34344  73.9782 112.0214 0155814 296.3882 216.6791 14.16396729860834"
      },
      "geometry": {
        "type": "Point",
        "coordinates": [
          29.678514163642618,
          -73.72368074145155
        ]
      }
    },
    {
      "type": "Feature",
      "properties": {
        "norad_id": 34346,
        "name": "COSMOS 2251 DEB",
        "group": "cosmos-2251-debris",
        "lat": -5.695171337700258,
        "lon": -50.258000052811646,
        "alt_km": 1004.5244177902714,
        "timestamp": "2025-12-13T05:42:57.966248+00:00",
        "meta_object_name": "COSMOS 2251 DEB",
        "meta_object_id": "1993-036PU",
        "meta_epoch": "2025-12-11T23:08:22.979040",
        "meta_mean_motion": 13.99688406,
        "meta_eccentricity": 0.0206215,
        "meta_inclination": 73.9954,
        "meta_ra_of_asc_node": 313.5919,
        "meta_arg_of_pericenter": 132.6799,
        "meta_mean_anomaly": 286.03,
        "meta_ephemeris_type": 0,
        "meta_classification_type": "U",
        "meta_norad_cat_id": 34346,
        "meta_element_set_no": 999,
        "meta_rev_at_epoch": 85399,
        "meta_bstar": 0.0014434,
        "meta_mean_motion_dot": 2.514e-05,
        "meta_mean_motion_ddot": 0,
        "tle_line1": "1 34346U 93036PU  25345.96415485  .00002514  00000+0  14434-2 0  9991",
        "tle_line2": "2 34346  73.9954 313.5919 0206215 132.6799 286.0300 13.99688406853990"
      },
      "geometry": {
        "type": "Point",
        "coordinates": [
          -50.258000052811646,
          -5.695171337700258
        ]
      }
    },
    {
      "type": "Feature",
      "properties": {
        "norad_id": 34383,
        "name": "COSMOS 2251 DEB",
        "group": "cosmos-2251-debris",
        "lat": 28.142278657237014,
        "lon": -54.509147657937106,
        "alt_km": 535.9048361621353,
        "timestamp": "2025-12-13T05:42:57.966259+00:00",
        "meta_object_name": "COSMOS 2251 DEB",
        "meta_object_id": "1993-036PY",
        "meta_epoch": "2025-12-12T07:51:24.539040",
        "meta_mean_motion": 15.08950534,
        "meta_eccentricity": 0.00023212,
        "meta_inclination": 74.0222,
        "meta_ra_of_asc_node": 298.5527,
        "meta_arg_of_pericenter": 42.7371,
        "meta_mean_anomaly": 80.986,
        "meta_ephemeris_type": 0,
        "meta_classification_type": "U",
        "meta_norad_cat_id": 34383,
        "meta_element_set_no": 999,
        "meta_rev_at_epoch": 89107,
        "meta_bstar": 0.0042291797,
        "meta_mean_motion_dot": 0.00067394,
        "meta_mean_motion_ddot": 0,
        "tle_line1": "1 34383U 93036PY  25346.32736735  .00067394  00000+0  42292-2 0  9997",
        "tle_line2": "2 34383  74.0222 298.5527 0002321  42.7371  80.9860 15.08950534891076"
      },
      "geometry": {
        "type": "Point",
        "coordinates": [
          -54.509147657937106,
          28.142278657237014
        ]
      }
    },
    {
      "type": "Feature",
      "properties": {
        "norad_id": 34387,
        "name": "COSMOS 2251 DEB",
        "group": "cosmos-2251-debris",
        "lat": -27.403959801399356,
        "lon": 39.502452472086865,
        "alt_km": 755.6539818276233,
        "timestamp": "2025-12-13T05:42:57.966332+00:00",
        "meta_object_name": "COSMOS 2251 DEB",
        "meta_object_id": "1993-036QC",
        "meta_epoch": "2025-12-12T02:52:38.968608",
        "meta_mean_motion": 14.43818415,
        "meta_eccentricity": 0.00387761,
        "meta_inclination": 74.0394,
        "meta_ra_of_asc_node": 213.0478,
        "meta_arg_of_pericenter": 310.1156,
        "meta_mean_anomaly": 208.6562,
        "meta_ephemeris_type": 0,
        "meta_classification_type": "U",
        "meta_norad_cat_id": 34387,
        "meta_element_set_no": 999,
        "meta_rev_at_epoch": 88172,
        "meta_bstar": 0.0004343424,
        "meta_mean_motion_dot": 1.466e-05,
        "meta_mean_motion_ddot": 0,
        "tle_line1": "1 34387U 93036QC  25346.11989547  .00001466  00000+0  43434-3 0  9997",
        "tle_line2": "2 34387  74.0394 213.0478 0038776 310.1156 208.6562 14.43818415881721"
      },
      "geometry": {
        "type": "Point",
        "coordinates": [
          39.502452472086865,
          -27.403959801399356
        ]
      }
    },
    {
      "type": "Feature",
      "properties": {
        "norad_id": 34388,
        "name": "COSMOS 2251 DEB",
        "group": "cosmos-2251-debris",
        "lat": -20.514413736529672,
        "lon": 48.31815130448577,
        "alt_km": 728.9688020659014,
        "timestamp": "2025-12-13T05:42:57.966345+00:00",
        "meta_object_name": "COSMOS 2251 DEB",
        "meta_object_id": "1993-036QD",
        "meta_epoch": "2025-12-12T02:59:05.105760",
        "meta_mean_motion": 14.49360724,
        "meta_eccentricity": 0.00140652,
        "meta_inclination": 74.039,
        "meta_ra_of_asc_node": 224.2589,
        "meta_arg_of_pericenter": 272.5488,
        "meta_mean_anomaly": 239.7098,
        "meta_ephemeris_type": 0,
        "meta_classification_type": "U",
        "meta_norad_cat_id": 34388,
        "meta_element_set_no": 999,
        "meta_rev_at_epoch": 88146,
        "meta_bstar": 0.0010928885,
        "meta_mean_motion_dot": 4.156e-05,
        "meta_mean_motion_ddot": 0,
        "tle_line1": "1 34388U 93036QD  25346.12436465  .00004156  00000+0  10929-2 0  9996",
        "tle_line2": "2 34388  74.0390 224.2589 0014065 272.5488 239.7098 14.49360724881460"
      },
      "geometry": {
        "type": "Point",
        "coordinates": [
          48.31815130448577,
          -20.514413736529672
        ]
      }
    }
  ]
}